1 43013U 17073A   26033.58568268  .00000094  00000+0  65428-4 0  9992
2 43013  98.7655 334.3304 0000579  16.3823 343.7372 14.19526228425377
